STARLINK-36719          
1 67648U 26022A   26062.62755993  .00228757  00000+0  14889-2 0  9997
2 67648  97.2831  96.2905 0001505  58.1151 302.0261 15.75267275  4595
STARLINK-36342          
1 67649U 26022B   26062.62685381  .00262570  00000+0  17019-2 0  9990
2 67649  97.2828  96.2923 0001200  79.2330 280.9070 15.75267940  4598
STARLINK-36703          
1 67650U 26022C   26062.62580077  .00303223  00000+0  19605-2 0  9992
2 67650  97.2829  96.2920 0002395  75.7655 284.3876 15.75212799  4599
STARLINK-36696          
1 67651U 26022D   26062.62403138  .00307237  00000+0  19843-2 0  9998
2 67651  97.2819  96.2955 0001720 103.5972 256.5485 15.75227702  4597
STARLINK-36699          
1 67652U 26022E   26062.62332574  .00269886  00000+0  17520-2 0  9991
2 67652  97.2834  96.2971 0001326 122.9130 237.2263 15.75212551  4592
STARLINK-36694          
1 67653U 26022F   26062.62120667  .00263849  00000+0  17133-2 0  9993
2 67653  97.2833  96.2985 0001082 142.7018 217.4323 15.75222500  4593
STARLINK-36620          
1 67654U 26022G   26062.58336806  .00009526  00000+0  64634-4 0  9993
2 67654  97.2840  96.2606 0001312  88.8974  58.7785 15.75200096  5910
STARLINK-36720          
1 67655U 26022H   26062.61909024  .00361189  00000+0  23189-2 0  9990
2 67655  97.2836  96.3015 0000952 126.8654 233.2698 15.75214719  4591
STARLINK-36688          
1 67656U 26022J   26062.61838889  .00258853  00000+0  16831-2 0  9990
2 67656  97.2830  96.3013 0001735  95.8345 264.3119 15.75205772  4598
STARLINK-36706          
1 67657U 26022K   26062.61697730  .00341447  00000+0  21976-2 0  9997
2 67657  97.2833  96.3031 0001873  93.3351 266.8129 15.75212506  4596
STARLINK-36701          
1 67658U 26022L   26062.61591528  .00375426  00000+0  24082-2 0  9991
2 67658  97.2837  96.3063 0001399 116.3697 243.7712 15.75195777  4590
STARLINK-36642          
1 67659U 26022M   26062.61485934  .00247370  00000+0  16108-2 0  9991
2 67659  97.2833  96.3070 0001786  91.9555 268.1915 15.75203076  4594
STARLINK-36673          
1 67660U 26022N   26062.61344759  .00272811  00000+0  17705-2 0  9994
2 67660  97.2829  96.3084 0001705 101.7995 258.3461 15.75210806  4591
STARLINK-36674          
1 67661U 26022P   26062.61203438  .00292365  00000+0  18929-2 0  9998
2 67661  97.2824  96.3099 0001719 113.7152 246.4294 15.75212059  4590
STARLINK-36700          
1 67662U 26022Q   26062.60991695  .00254527  00000+0  16565-2 0  9999
2 67662  97.2829  96.3135 0001146  90.7664 269.3733 15.75196866  4592
STARLINK-36675          
1 67663U 26022R   26062.61133001  .00339213  00000+0  21832-2 0  9999
2 67663  97.2820  96.3110 0001669 101.4612 258.6841 15.75219270  4596
