[{"OBJECT_NAME":"STARLINK-36719","OBJECT_ID":"2026-022A","EPOCH":"2026-03-03T15:03:41.177952","MEAN_MOTION":15.75267275,"ECCENTRICITY":0.00015055,"INCLINATION":97.2831,"RA_OF_ASC_NODE":96.2905,"ARG_OF_PERICENTER":58.1151,"MEAN_ANOMALY":302.0261,"EPHEMERIS_TYPE":0,"CLASSIFICATION_TYPE":"U","NORAD_CAT_ID":67648,"ELEMENT_SET_NO":999,"REV_AT_EPOCH":459,"BSTAR":0.0014888537,"MEAN_MOTION_DOT":0.00228757,"MEAN_MOTION_DDOT":0},{"OBJECT_NAME":"STARLINK-36342","OBJECT_ID":"2026-022B","EPOCH":"2026-03-03T15:02:40.169184","MEAN_MOTION":15.7526794,"ECCENTRICITY":0.00012006,"INCLINATION":97.2828,"RA_OF_ASC_NODE":96.2923,"ARG_OF_PERICENTER":79.233,"MEAN_ANOMALY":280.907,"EPHEMERIS_TYPE":0,"CLASSIFICATION_TYPE":"U","NORAD_CAT_ID":67649,"ELEMENT_SET_NO":999,"REV_AT_EPOCH":459,"BSTAR":0.0017019323,"MEAN_MOTION_DOT":0.0026257,"MEAN_MOTION_DDOT":0},{"OBJECT_NAME":"STARLINK-36703","OBJECT_ID":"2026-022C","EPOCH":"2026-03-03T15:01:09.186528","MEAN_MOTION":15.75212799,"ECCENTRICITY":0.00023953,"INCLINATION":97.2829,"RA_OF_ASC_NODE":96.292,"ARG_OF_PERICENTER":75.7655,"MEAN_ANOMALY":284.3876,"EPHEMERIS_TYPE":0,"CLASSIFICATION_TYPE":"U","NORAD_CAT_ID":67650,"ELEMENT_SET_NO":999,"REV_AT_EPOCH":459,"BSTAR":0.0019605105,"MEAN_MOTION_DOT":0.00303223,"MEAN_MOTION_DDOT":0},{"OBJECT_NAME":"STARLINK-36696","OBJECT_ID":"2026-022D","EPOCH":"2026-03-03T14:58:36.311232","MEAN_MOTION":15.75227702,"ECCENTRICITY":0.00017201,"INCLINATION":97.2819,"RA_OF_ASC_NODE":96.2955,"ARG_OF_PERICENTER":103.5972,"MEAN_ANOMALY":256.5485,"EPHEMERIS_TYPE":0,"CLASSIFICATION_TYPE":"U","NORAD_CAT_ID":67651,"ELEMENT_SET_NO":999,"REV_AT_EPOCH":459,"BSTAR":0.0019842641,"MEAN_MOTION_DOT":0.00307237,"MEAN_MOTION_DDOT":0},{"OBJECT_NAME":"STARLINK-36699","OBJECT_ID":"2026-022E","EPOCH":"2026-03-03T14:57:35.343936","MEAN_MOTION":15.75212551,"ECCENTRICITY":0.00013269,"INCLINATION":97.2834,"RA_OF_ASC_NODE":96.2971,"ARG_OF_PERICENTER":122.913,"MEAN_ANOMALY":237.2263,"EPHEMERIS_TYPE":0,"CLASSIFICATION_TYPE":"U","NORAD_CAT_ID":67652,"ELEMENT_SET_NO":999,"REV_AT_EPOCH":459,"BSTAR":0.0017520041,"MEAN_MOTION_DOT":0.00269886,"MEAN_MOTION_DDOT":0},{"OBJECT_NAME":"STARLINK-36694","OBJECT_ID":"2026-022F","EPOCH":"2026-03-03T14:54:32.256288","MEAN_MOTION":15.752225,"ECCENTRICITY":0.00010827,"INCLINATION":97.2833,"RA_OF_ASC_NODE":96.2985,"ARG_OF_PERICENTER":142.7018,"MEAN_ANOMALY":217.4323,"EPHEMERIS_TYPE":0,"CLASSIFICATION_TYPE":"U","NORAD_CAT_ID":67653,"ELEMENT_SET_NO":999,"REV_AT_EPOCH":459,"BSTAR":0.0017133122,"MEAN_MOTION_DOT":0.00263849,"MEAN_MOTION_DDOT":0},{"OBJECT_NAME":"STARLINK-36620","OBJECT_ID":"2026-022G","EPOCH":"2026-03-03T14:00:03.000384","MEAN_MOTION":15.75200096,"ECCENTRICITY":0.00013123,"INCLINATION":97.284,"RA_OF_ASC_NODE":96.2606,"ARG_OF_PERICENTER":88.8974,"MEAN_ANOMALY":58.7785,"EPHEMERIS_TYPE":0,"CLASSIFICATION_TYPE":"U","NORAD_CAT_ID":67654,"ELEMENT_SET_NO":999,"REV_AT_EPOCH":591,"BSTAR":6.4633858e-5,"MEAN_MOTION_DOT":9.526e-5,"MEAN_MOTION_DDOT":0},{"OBJECT_NAME":"STARLINK-36720","OBJECT_ID":"2026-022H","EPOCH":"2026-03-03T14:51:29.396736","MEAN_MOTION":15.75214719,"ECCENTRICITY":9.52e-5,"INCLINATION":97.2836,"RA_OF_ASC_NODE":96.3015,"ARG_OF_PERICENTER":126.8654,"MEAN_ANOMALY":233.2698,"EPHEMERIS_TYPE":0,"CLASSIFICATION_TYPE":"U","NORAD_CAT_ID":67655,"ELEMENT_SET_NO":999,"REV_AT_EPOCH":459,"BSTAR":0.0023189123,"MEAN_MOTION_DOT":0.00361189,"MEAN_MOTION_DDOT":0},{"OBJECT_NAME":"STARLINK-36688","OBJECT_ID":"2026-022J","EPOCH":"2026-03-03T14:50:28.800096","MEAN_MOTION":15.75205772,"ECCENTRICITY":0.00017351,"INCLINATION":97.283,"RA_OF_ASC_NODE":96.3013,"ARG_OF_PERICENTER":95.8345,"MEAN_ANOMALY":264.3119,"EPHEMERIS_TYPE":0,"CLASSIFICATION_TYPE":"U","NORAD_CAT_ID":67656,"ELEMENT_SET_NO":999,"REV_AT_EPOCH":459,"BSTAR":0.0016830971,"MEAN_MOTION_DOT":0.00258853,"MEAN_MOTION_DDOT":0},{"OBJECT_NAME":"STARLINK-36706","OBJECT_ID":"2026-022K","EPOCH":"2026-03-03T14:48:26.838720","MEAN_MOTION":15.75212506,"ECCENTRICITY":0.00018737,"INCLINATION":97.2833,"RA_OF_ASC_NODE":96.3031,"ARG_OF_PERICENTER":93.3351,"MEAN_ANOMALY":266.8129,"EPHEMERIS_TYPE":0,"CLASSIFICATION_TYPE":"U","NORAD_CAT_ID":67657,"ELEMENT_SET_NO":999,"REV_AT_EPOCH":459,"BSTAR":0.002197635,"MEAN_MOTION_DOT":0.00341447,"MEAN_MOTION_DDOT":0},{"OBJECT_NAME":"STARLINK-36701","OBJECT_ID":"2026-022L","EPOCH":"2026-03-03T14:46:55.080192","MEAN_MOTION":15.75195777,"ECCENTRICITY":0.00013995,"INCLINATION":97.2837,"RA_OF_ASC_NODE":96.3063,"ARG_OF_PERICENTER":116.3697,"MEAN_ANOMALY":243.7712,"EPHEMERIS_TYPE":0,"CLASSIFICATION_TYPE":"U","NORAD_CAT_ID":67658,"ELEMENT_SET_NO":999,"REV_AT_EPOCH":459,"BSTAR":0.0024082315,"MEAN_MOTION_DOT":0.00375426,"MEAN_MOTION_DDOT":0},{"OBJECT_NAME":"STARLINK-36642","OBJECT_ID":"2026-022M","EPOCH":"2026-03-03T14:45:23.846976","MEAN_MOTION":15.75203076,"ECCENTRICITY":0.00017867,"INCLINATION":97.2833,"RA_OF_ASC_NODE":96.307,"ARG_OF_PERICENTER":91.9555,"MEAN_ANOMALY":268.1915,"EPHEMERIS_TYPE":0,"CLASSIFICATION_TYPE":"U","NORAD_CAT_ID":67659,"ELEMENT_SET_NO":999,"REV_AT_EPOCH":459,"BSTAR":0.0016108456,"MEAN_MOTION_DOT":0.0024737,"MEAN_MOTION_DDOT":0},{"OBJECT_NAME":"STARLINK-36673","OBJECT_ID":"2026-022N","EPOCH":"2026-03-03T14:43:21.871776","MEAN_MOTION":15.75210806,"ECCENTRICITY":0.00017058,"INCLINATION":97.2829,"RA_OF_ASC_NODE":96.3084,"ARG_OF_PERICENTER":101.7995,"MEAN_ANOMALY":258.3461,"EPHEMERIS_TYPE":0,"CLASSIFICATION_TYPE":"U","NORAD_CAT_ID":67660,"ELEMENT_SET_NO":999,"REV_AT_EPOCH":459,"BSTAR":0.0017705017,"MEAN_MOTION_DOT":0.00272811,"MEAN_MOTION_DDOT":0},{"OBJECT_NAME":"STARLINK-36674","OBJECT_ID":"2026-022P","EPOCH":"2026-03-03T14:41:19.770432","MEAN_MOTION":15.75212059,"ECCENTRICITY":0.00017194,"INCLINATION":97.2824,"RA_OF_ASC_NODE":96.3099,"ARG_OF_PERICENTER":113.7152,"MEAN_ANOMALY":246.4294,"EPHEMERIS_TYPE":0,"CLASSIFICATION_TYPE":"U","NORAD_CAT_ID":67661,"ELEMENT_SET_NO":999,"REV_AT_EPOCH":459,"BSTAR":0.001892856,"MEAN_MOTION_DOT":0.00292365,"MEAN_MOTION_DDOT":0},{"OBJECT_NAME":"STARLINK-36700","OBJECT_ID":"2026-022Q","EPOCH":"2026-03-03T14:38:16.824480","MEAN_MOTION":15.75196866,"ECCENTRICITY":0.00011464,"INCLINATION":97.2829,"RA_OF_ASC_NODE":96.3135,"ARG_OF_PERICENTER":90.7664,"MEAN_ANOMALY":269.3733,"EPHEMERIS_TYPE":0,"CLASSIFICATION_TYPE":"U","NORAD_CAT_ID":67662,"ELEMENT_SET_NO":999,"REV_AT_EPOCH":459,"BSTAR":0.0016564707,"MEAN_MOTION_DOT":0.00254527,"MEAN_MOTION_DDOT":0},{"OBJECT_NAME":"STARLINK-36675","OBJECT_ID":"2026-022R","EPOCH":"2026-03-03T14:40:18.912864","MEAN_MOTION":15.7521927,"ECCENTRICITY":0.00016699,"INCLINATION":97.282,"RA_OF_ASC_NODE":96.311,"ARG_OF_PERICENTER":101.4612,"MEAN_ANOMALY":258.6841,"EPHEMERIS_TYPE":0,"CLASSIFICATION_TYPE":"U","NORAD_CAT_ID":67663,"ELEMENT_SET_NO":999,"REV_AT_EPOCH":459,"BSTAR":0.0021831997,"MEAN_MOTION_DOT":0.00339213,"MEAN_MOTION_DDOT":0}]
